start=new Date('2021-12-12T00:00:00.000Z').valueOf();
sats=[{"CLASSIFICATION_TYPE":"U","RA_OF_ASC_NODE":"75.1464","LAUNCH_DATE":"2020-01-07","SITE":"AFETR","OBJECT_TYPE":"PAYLOAD","COUNTRY_CODE":"US","NORAD_CAT_ID":"44946","SEMIMAJOR_AXIS":"6917.971","APOAPSIS":"540.725","DECAY_DATE":null,"MEAN_ANOMALY":"283.3574","OBJECT_ID":"2020-001AJ","CENTER_NAME":"EARTH","ELEMENT_SET_NO":"999","MEAN_MOTION":"15.08810446","INCLINATION":"53.0043","RCS_SIZE":"LARGE","ARG_OF_PERICENTER":"76.7558","PERIAPSIS":"538.947","OBJECT_NAME":"STARLINK-1110","TLE_LINE1":"1 44946U 20001AJ  21345.77992736  .00003954  00000-0  26656-3 0  9994","REF_FRAME":"TEME","MEAN_MOTION_DDOT":"0.0000000000000","PERIOD":"95.439","GP_ID":"191520584","EPHEMERIS_TYPE":"0","FILE":"3237650","EPOCH":"2021-12-11T18:43:05.723904","MEAN_ELEMENT_THEORY":"SGP4","BSTAR":"0.00026656000000","TIME_SYSTEM":"UTC","ECCENTRICITY":"0.00012850","TLE_LINE2":"2 44946  53.0043  75.1464 0001285  76.7558 283.3574 15.08810446106719","REV_AT_EPOCH":"10671","MEAN_MOTION_DOT":"0.00003954"},{"TLE_LINE1":"1 44947U 20001AK  21345.73135246 -.00000707  00000-0 -28595-4 0  9996","REF_FRAME":"TEME","MEAN_MOTION_DDOT":"0.0000000000000","PERIOD":"95.592","INCLINATION":"53.0548","RCS_SIZE":"LARGE","ARG_OF_PERICENTER":"86.3552","PERIAPSIS":"546.283","OBJECT_NAME":"STARLINK-1116","MEAN_ELEMENT_THEORY":"SGP4","BSTAR":"-0.00002859500000","TIME_SYSTEM":"UTC","ECCENTRICITY":"0.00013650","TLE_LINE2":"2 44947  53.0548  80.1576 0001365  86.3552 273.7594 15.06395296106668","MEAN_MOTION_DOT":"-0.00000707","REV_AT_EPOCH":"10666","GP_ID":"191519825","FILE":"3237650","EPHEMERIS_TYPE":"0","EPOCH":"2021-12-11T17:33:08.852544","OBJECT_TYPE":"PAYLOAD","COUNTRY_CODE":"US","NORAD_CAT_ID":"44947","CLASSIFICATION_TYPE":"U","RA_OF_ASC_NODE":"80.1576","LAUNCH_DATE":"2020-01-07","SITE":"AFETR","OBJECT_ID":"2020-001AK","CENTER_NAME":"EARTH","MEAN_MOTION":"15.06395296","ELEMENT_SET_NO":"999","SEMIMAJOR_AXIS":"6925.363","APOAPSIS":"548.173","DECAY_DATE":null,"MEAN_ANOMALY":"273.7594"},{"TLE_LINE1":"1 44949U 20001AM  21345.69080562 -.00000851  00000-0 -38280-4 0  9995","PERIOD":"95.593","MEAN_MOTION_DDOT":"0.0000000000000","REF_FRAME":"TEME","ARG_OF_PERICENTER":"86.6035","RCS_SIZE":"LARGE","INCLINATION":"53.0562","OBJECT_NAME":"STARLINK-1122","PERIAPSIS":"546.381","TLE_LINE2":"2 44949  53.0562  80.3576 0001237  86.6035 273.5095 15.06392044106656","ECCENTRICITY":"0.00012370","TIME_SYSTEM":"UTC","BSTAR":"-0.00003828000000","MEAN_ELEMENT_THEORY":"SGP4","REV_AT_EPOCH":"10665","MEAN_MOTION_DOT":"-0.00000851","GP_ID":"191520075","EPOCH":"2021-12-11T16:34:45.605568","EPHEMERIS_TYPE":"0","FILE":"3237650","COUNTRY_CODE":"US","OBJECT_TYPE":"PAYLOAD","NORAD_CAT_ID":"44949","RA_OF_ASC_NODE":"80.3576","CLASSIFICATION_TYPE":"U","SITE":"AFETR","LAUNCH_DATE":"2020-01-07","ELEMENT_SET_NO":"999","MEAN_MOTION":"15.06392044","OBJECT_ID":"2020-001AM","CENTER_NAME":"EARTH","DECAY_DATE":null,"APOAPSIS":"548.095","SEMIMAJOR_AXIS":"6925.373","MEAN_ANOMALY":"273.5095"},{"MEAN_ANOMALY":"270.0687","APOAPSIS":"548.149","DECAY_DATE":null,"SEMIMAJOR_AXIS":"6925.365","MEAN_MOTION":"15.06394663","ELEMENT_SET_NO":"999","CENTER_NAME":"EARTH","OBJECT_ID":"2020-001AN","LAUNCH_DATE":"2020-01-07","SITE":"AFETR","CLASSIFICATION_TYPE":"U","RA_OF_ASC_NODE":"80.2835","NORAD_CAT_ID":"44950","OBJECT_TYPE":"PAYLOAD","COUNTRY_CODE":"US","FILE":"3237650","EPHEMERIS_TYPE":"0","EPOCH":"2021-12-11T16:55:59.583072","GP_ID":"191520334","REV_AT_EPOCH":"10665","MEAN_MOTION_DOT":"-0.00000707","ECCENTRICITY":"0.00013270","TLE_LINE2":"2 44950  53.0543  80.2835 0001327  90.0454 270.0687 15.06394663106656","MEAN_ELEMENT_THEORY":"SGP4","BSTAR":"-0.00002860200000","TIME_SYSTEM":"UTC","OBJECT_NAME":"STARLINK-1125","PERIAPSIS":"546.311","RCS_SIZE":"LARGE","ARG_OF_PERICENTER":"90.0454","INCLINATION":"53.0543","MEAN_MOTION_DDOT":"0.0000000000000","PERIOD":"95.592","REF_FRAME":"TEME","TLE_LINE1":"1 44950U 20001AN  21345.70555073 -.00000707  00000-0 -28602-4 0  9990"},{"PERIOD":"95.450","MEAN_MOTION_DDOT":"0.0000000000000","REF_FRAME":"TEME","TLE_LINE1":"1 44951U 20001AP  21345.71723722  .00004067  00000-0  27485-3 0  9998","OBJECT_NAME":"STARLINK-1126","PERIAPSIS":"539.553","ARG_OF_PERICENTER":"74.2335","RCS_SIZE":"LARGE","INCLINATION":"53.0034","MEAN_MOTION_DOT":"0.00004067","REV_AT_EPOCH":"10798","TLE_LINE2":"2 44951  53.0034  76.0155 0001139  74.2335 285.8779 15.08645111107985","ECCENTRICITY":"0.00011390","TIME_SYSTEM":"UTC","MEAN_ELEMENT_THEORY":"SGP4","BSTAR":"0.00027485000000","EPOCH":"2021-12-11T17:12:49.295808","FILE":"3237650","EPHEMERIS_TYPE":"0","GP_ID":"191521077","NORAD_CAT_ID":"44951","COUNTRY_CODE":"US","OBJECT_TYPE":"PAYLOAD","SITE":"AFETR","LAUNCH_DATE":"2020-01-07","RA_OF_ASC_NODE":"76.0155","CLASSIFICATION_TYPE":"U","ELEMENT_SET_NO":"999","MEAN_MOTION":"15.08645111","OBJECT_ID":"2020-001AP","CENTER_NAME":"EARTH","MEAN_ANOMALY":"285.8779","DECAY_DATE":null,"APOAPSIS":"541.129","SEMIMAJOR_AXIS":"6918.476"},{"OBJECT_ID":"2020-001AQ","CENTER_NAME":"EARTH","ELEMENT_SET_NO":"999","MEAN_MOTION":"15.06400674","MEAN_ANOMALY":"272.8789","SEMIMAJOR_AXIS":"6925.346","APOAPSIS":"548.023","DECAY_DATE":null,"NORAD_CAT_ID":"44952","OBJECT_TYPE":"PAYLOAD","COUNTRY_CODE":"US","LAUNCH_DATE":"2020-01-07","SITE":"AFETR","CLASSIFICATION_TYPE":"U","RA_OF_ASC_NODE":"80.1306","MEAN_MOTION_DOT":"0.00000136","REV_AT_EPOCH":"10666","BSTAR":"0.00002804500000","MEAN_ELEMENT_THEORY":"SGP4","TIME_SYSTEM":"UTC","ECCENTRICITY":"0.00011720","TLE_LINE2":"2 44952  53.0552  80.1306 0001172  87.2334 272.8789 15.06400674106667","FILE":"3237650","EPHEMERIS_TYPE":"0","EPOCH":"2021-12-11T17:43:45.071904","GP_ID":"191519333","REF_FRAME":"TEME","MEAN_MOTION_DDOT":"0.0000000000000","PERIOD":"95.592","TLE_LINE1":"1 44952U 20001AQ  21345.73871611  .00000136  00000-0  28045-4 0  9999","PERIAPSIS":"546.400","OBJECT_NAME":"STARLINK-1117","INCLINATION":"53.0552","RCS_SIZE":"LARGE","ARG_OF_PERICENTER":"87.2334"},{"REV_AT_EPOCH":"10792","MEAN_MOTION_DOT":"0.00000924","TIME_SYSTEM":"UTC","BSTAR":"0.00008091100000","MEAN_ELEMENT_THEORY":"SGP4","TLE_LINE2":"2 44953  53.0498  80.9698 0001306  89.6765 270.4373 15.06401278107926","ECCENTRICITY":"0.00013060","EPOCH":"2021-12-11T13:22:18.425280","EPHEMERIS_TYPE":"0","FILE":"3237453","GP_ID":"191491848","REF_FRAME":"TEME","PERIOD":"95.592","MEAN_MOTION_DDOT":"0.0000000000000","TLE_LINE1":"1 44953U 20001AR  21345.55715770  .00000924  00000-0  80911-4 0  9998","PERIAPSIS":"546.305","OBJECT_NAME":"STARLINK-1124","INCLINATION":"53.0498","ARG_OF_PERICENTER":"89.6765","RCS_SIZE":"LARGE","OBJECT_ID":"2020-001AR","CENTER_NAME":"EARTH","MEAN_MOTION":"15.06401278","ELEMENT_SET_NO":"999","MEAN_ANOMALY":"270.4373","SEMIMAJOR_AXIS":"6925.345","DECAY_DATE":null,"APOAPSIS":"548.114","NORAD_CAT_ID":"44953","COUNTRY_CODE":"US","OBJECT_TYPE":"PAYLOAD","SITE":"AFETR","LAUNCH_DATE":"2020-01-07","RA_OF_ASC_NODE":"80.9698","CLASSIFICATION_TYPE":"U"},{"TLE_LINE1":"1 44954U 20001AS  21345.90274838 -.00000770  00000-0 -32802-4 0  9990","MEAN_MOTION_DDOT":"0.0000000000000","PERIOD":"95.593","REF_FRAME":"TEME","RCS_SIZE":"LARGE","ARG_OF_PERICENTER":"72.2323","INCLINATION":"53.0547","OBJECT_NAME":"STARLINK-1066","PERIAPSIS":"546.309","ECCENTRICITY":"0.00013430","TLE_LINE2":"2 44954  53.0547  59.3935 0001343  72.2323 287.8813 15.06391544106918","BSTAR":"-0.00003280200000","MEAN_ELEMENT_THEORY":"SGP4","TIME_SYSTEM":"UTC","REV_AT_EPOCH":"10691","MEAN_MOTION_DOT":"-0.00000770","GP_ID":"191520827","FILE":"3237650","EPHEMERIS_TYPE":"0","EPOCH":"2021-12-11T21:39:57.460032","OBJECT_TYPE":"PAYLOAD","COUNTRY_CODE":"US","NORAD_CAT_ID":"44954","CLASSIFICATION_TYPE":"U","RA_OF_ASC_NODE":"59.3935","LAUNCH_DATE":"2020-01-07","SITE":"AFETR","ELEMENT_SET_NO":"999","MEAN_MOTION":"15.06391544","OBJECT_ID":"2020-001AS","CENTER_NAME":"EARTH","APOAPSIS":"548.170","DECAY_DATE":null,"SEMIMAJOR_AXIS":"6925.374","MEAN_ANOMALY":"287.8813"},{"MEAN_ANOMALY":"288.5748","APOAPSIS":"547.988","DECAY_DATE":null,"SEMIMAJOR_AXIS":"6925.364","ELEMENT_SET_NO":"999","MEAN_MOTION":"15.06395083","OBJECT_ID":"2020-001AT","CENTER_NAME":"EARTH","LAUNCH_DATE":"2020-01-07","SITE":"AFETR","CLASSIFICATION_TYPE":"U","RA_OF_ASC_NODE":"60.5634","NORAD_CAT_ID":"44955","OBJECT_TYPE":"PAYLOAD","COUNTRY_CODE":"US","EPHEMERIS_TYPE":"0","FILE":"3237650","EPOCH":"2021-12-11T15:28:24.790368","GP_ID":"191520585","MEAN_MOTION_DOT":"-0.00000731","REV_AT_EPOCH":"10687","ECCENTRICITY":"0.00010970","TLE_LINE2":"2 44955  53.0561  60.5634 0001097  71.5360 288.5748 15.06395083106876","MEAN_ELEMENT_THEORY":"SGP4","BSTAR":"-0.00003018900000","TIME_SYSTEM":"UTC","OBJECT_NAME":"STARLINK-1069","PERIAPSIS":"546.469","RCS_SIZE":"LARGE","ARG_OF_PERICENTER":"71.5360","INCLINATION":"53.0561","MEAN_MOTION_DDOT":"0.0000000000000","PERIOD":"95.592","REF_FRAME":"TEME","TLE_LINE1":"1 44955U 20001AT  21345.64473137 -.00000731  00000-0 -30189-4 0  9998"},{"SEMIMAJOR_AXIS":"6925.358","APOAPSIS":"548.014","DECAY_DATE":null,"MEAN_ANOMALY":"281.5787","OBJECT_ID":"2020-001AU","CENTER_NAME":"EARTH","ELEMENT_SET_NO":"999","MEAN_MOTION":"15.06396852","CLASSIFICATION_TYPE":"U","RA_OF_ASC_NODE":"59.3846","LAUNCH_DATE":"2020-01-07","SITE":"AFETR","OBJECT_TYPE":"PAYLOAD","COUNTRY_CODE":"US","NORAD_CAT_ID":"44956","GP_ID":"191519826","EPHEMERIS_TYPE":"0","FILE":"3237650","EPOCH":"2021-12-11T21:45:15.811200","BSTAR":"-0.00002351700000","MEAN_ELEMENT_THEORY":"SGP4","TIME_SYSTEM":"UTC","ECCENTRICITY":"0.00011420","TLE_LINE2":"2 44956  53.0558  59.3846 0001142  78.5330 281.5787 15.06396852106971","REV_AT_EPOCH":"10697","MEAN_MOTION_DOT":"-0.00000632","INCLINATION":"53.0558","RCS_SIZE":"LARGE","ARG_OF_PERICENTER":"78.5330","PERIAPSIS":"546.432","OBJECT_NAME":"STARLINK-1070","TLE_LINE1":"1 44956U 20001AU  21345.90643300 -.00000632  00000-0 -23517-4 0  9996","REF_FRAME":"TEME","MEAN_MOTION_DDOT":"0.0000000000000","PERIOD":"95.592"}];
